NORAD_CAT_ID,OBJECT_NAME,OBJECT_TYPE,EPOCH,MEAN_MOTION,ECCENTRICITY,INCLINATION,RA_OF_ASC_NODE,ARG_OF_PERICENTER,MEAN_ANOMALY,BSTAR,MEAN_MOTION_DOT,MEAN_MOTION_DDOT,TLE_LINE0,TLE_LINE1,TLE_LINE2,SEMIMAJOR_AXIS,PERIOD,APOGEE,PERIGEE,DECAYED
52129.0,STARLINK-3661,PAYLOAD,2024-07-15 21:18:22,15.08842709,0.0001717,53.2168,250.7136,103.4661,256.6523,4.0218e-06,-2.24e-06,0.0,0 STARLINK-3661,1 52129U 22029AT  24197.88775577 -.00000224  00000-0  40218-5 0  9990,2 52129  53.2168 250.7136 0001717 103.4661 256.6523 15.08842709130082,6917.872,95.437,540.925,538.549,0.0
52129.0,STARLINK-3661,PAYLOAD,2024-07-16 03:39:54,15.08840067,0.0001791,53.2179,249.5233,102.7285,257.3907,1.3027e-05,-8.1e-07,0.0,0 STARLINK-3661,1 52129U 22029AT  24198.15271657 -.00000081  00000-0  13027-4 0  9999,2 52129  53.2179 249.5233 0001791 102.7285 257.3907 15.08840067130128,6917.88,95.438,540.984,538.506,0.0
52129.0,STARLINK-3661,PAYLOAD,2024-07-16 10:01:27,15.08840158,0.0001545,53.2161,248.3371,95.0133,265.1035,-1.8001e-05,-5.74e-06,0.0,0 STARLINK-3661,1 52129U 22029AT  24198.41767812 -.00000574  00000-0 -18001-4 0  9996,2 52129  53.2161 248.3371 0001545  95.0133 265.1035 15.08840158130166,6917.88,95.438,540.814,538.676,0.0
52129.0,STARLINK-3661,PAYLOAD,2024-07-17 09:52:15,15.0882608,0.0001114,53.2147,243.88,82.2517,277.8602,4.7376e-05,4.66e-06,0.0,0 STARLINK-3661,1 52129U 22029AT  24199.41128669  .00000466  00000-0  47376-4 0  9993,2 52129  53.2147 243.8800 0001114  82.2517 277.8602 15.08826080130318,6917.923,95.438,540.559,539.017,0.0
52129.0,STARLINK-3661,PAYLOAD,2024-07-18 09:43:02,15.08834185,0.0001294,53.2154,239.4175,88.5717,271.5423,7.8375e-05,9.59e-06,0.0,0 STARLINK-3661,1 52129U 22029AT  24200.40488569  .00000959  00000-0  78375-4 0  9993,2 52129  53.2154 239.4175 0001294  88.5717 271.5423 15.08834185130465,6917.898,95.438,540.658,538.868,0.0
52129.0,STARLINK-3661,PAYLOAD,2024-07-19 09:33:49,15.08836511,0.0001347,53.2158,234.9562,81.4758,278.6387,0.00013424,1.849e-05,0.0,0 STARLINK-3661,1 52129U 22029AT  24201.39848686  .00001849  00000-0  13424-3 0  9994,2 52129  53.2158 234.9562 0001347  81.4758 278.6387 15.08836511130614,6917.891,95.438,540.688,538.824,0.0
52129.0,STARLINK-3661,PAYLOAD,2024-07-20 10:59:59,15.08844556,0.0001347,53.2156,230.1988,87.7492,272.3654,0.00010601,1.4e-05,0.0,0 STARLINK-3661,1 52129U 22029AT  24202.45832257  .00001400  00000-0  10601-3 0  9996,2 52129  53.2156 230.1988 0001347  87.7492 272.3654 15.08844556130779,6917.866,95.437,540.663,538.8,0.0
52129.0,STARLINK-3661,PAYLOAD,2024-07-21 10:50:46,15.08840111,0.000139,53.2155,225.7385,92.9069,267.2082,6.9521e-05,8.19e-06,0.0,0 STARLINK-3661,1 52129U 22029AT  24203.45192634  .00000819  00000-0  69521-4 0  9994,2 52129  53.2155 225.7385 0001390  92.9069 267.2082 15.08840111130923,6917.88,95.438,540.707,538.783,0.0
52129.0,STARLINK-3661,PAYLOAD,2024-07-22 10:41:33,15.08846322,0.0001451,53.2155,221.2763,90.5913,269.5245,6.5628e-05,7.57e-06,0.0,0 STARLINK-3661,1 52129U 22029AT  24204.44552103  .00000757  00000-0  65628-4 0  9990,2 52129  53.2155 221.2763 0001451  90.5913 269.5245 15.08846322131077,6917.861,95.437,540.73,538.722,0.0
52129.0,STARLINK-3661,PAYLOAD,2024-07-23 01:00:01,15.08841677,0.0001436,53.2152,218.5994,98.2625,261.853,8.5481e-05,1.073e-05,0.0,0 STARLINK-3661,1 52129U 22029AT  24205.04168212  .00001073  00000-0  85481-4 0  9992,2 52129  53.2152 218.5994 0001436  98.2625 261.8530 15.08841677131167,6917.875,95.437,540.734,538.747,0.0
52129.0,STARLINK-3661,PAYLOAD,2024-07-23 07:21:33,15.08841535,0.0001467,53.2154,217.4104,94.9074,265.2086,7.8789e-05,9.66e-06,0.0,0 STARLINK-3661,1 52129U 22029AT  24205.30664288  .00000966  00000-0  78789-4 0  9998,2 52129  53.2154 217.4104 0001467  94.9074 265.2086 15.08841535131207,6917.876,95.437,540.756,538.726,0.0
52129.0,STARLINK-3661,PAYLOAD,2024-07-24 04:01:35,15.08837232,0.0001494,53.2154,213.5443,96.4096,263.7066,-3.2751e-06,-3.4e-06,0.0,0 STARLINK-3661,1 52129U 22029AT  24206.16776739 -.00000340  00000-0 -32751-5 0  9996,2 52129  53.2154 213.5443 0001494  96.4096 263.7066 15.08837232131335,6917.889,95.438,540.787,538.72,0.0
52129.0,STARLINK-3661,PAYLOAD,2024-07-24 07:12:21,15.08834791,0.0001423,53.2155,212.9497,94.4483,265.6672,-3.3014e-05,-8.13e-06,0.0,0 STARLINK-3661,1 52129U 22029AT  24206.30024979 -.00000813  00000-0 -33014-4 0  9991,2 52129  53.2155 212.9497 0001423  94.4483 265.6672 15.08834791131351,6917.896,95.438,540.746,538.777,0.0
52129.0,STARLINK-3661,PAYLOAD,2024-07-25 05:27:45,15.08839462,0.0001369,53.2155,208.787,91.6493,268.4656,4.5878e-05,4.42e-06,0.0,0 STARLINK-3661,1 52129U 22029AT  24207.22760589  .00000442  00000-0  45878-4 0  9994,2 52129  53.2155 208.7870 0001369  91.6493 268.4656 15.08839462131496,6917.882,95.438,540.694,538.8,0.0
52129.0,STARLINK-3661,PAYLOAD,2024-07-25 10:13:54,15.08840223,0.0001377,53.2154,207.8949,91.6883,268.4266,5.1001e-05,5.24e-06,0.0,0 STARLINK-3661,1 52129U 22029AT  24207.42632536  .00000524  00000-0  51001-4 0  9992,2 52129  53.2154 207.8949 0001377  91.6883 268.4266 15.08840223131522,6917.88,95.438,540.697,538.792,0.0
52129.0,STARLINK-3661,PAYLOAD,2024-07-26 06:53:55,15.08839374,0.0001459,53.2162,204.0311,99.7467,260.3689,0.00012905,1.766e-05,0.0,0 STARLINK-3661,1 52129U 22029AT  24208.28744238  .00001766  00000-0  12905-3 0  9998,2 52129  53.2162 204.0311 0001459  99.7467 260.3689 15.08839374131650,6917.882,95.438,540.757,538.738,0.0
52129.0,STARLINK-3661,PAYLOAD,2024-07-26 16:26:13,15.08844753,0.0001494,53.2164,202.2469,99.2935,260.8227,0.00012585,1.716e-05,0.0,0 STARLINK-3661,1 52129U 22029AT  24208.68487854  .00001716  00000-0  12585-3 0  9999,2 52129  53.2164 202.2469 0001494  99.2935 260.8227 15.08844753131717,6917.866,95.437,540.764,538.697,0.0
52129.0,STARLINK-3661,PAYLOAD,2024-07-27 05:09:23,15.08791495,0.0001687,53.2161,199.8684,100.9924,259.1258,-0.00035755,-5.966e-05,0.0,0 STARLINK-3661,1 52129U 22029AT  24209.21485721 -.00005966  00000-0 -35755-3 0  9997,2 52129  53.2161 199.8684 0001687 100.9924 259.1258 15.08791495131793,6918.029,95.441,541.061,538.727,0.0
52129.0,STARLINK-3661,PAYLOAD,2024-07-28 05:00:07,15.08840834,0.0001531,53.2163,195.4072,95.8491,264.2676,6.4461e-05,7.38e-06,0.0,0 STARLINK-3661,1 52129U 22029AT  24210.20842096  .00000738  00000-0  64461-4 0  9997,2 52129  53.2163 195.4072 0001531  95.8491 264.2676 15.08840834131947,6917.878,95.438,540.802,538.684,0.0
52129.0,STARLINK-3661,PAYLOAD,2024-07-28 22:29:25,15.08672915,0.0002136,53.2153,192.1345,117.9248,242.196,0.0026351,0.00041707,0.0,0 STARLINK-3661,1 52129U 22029AT  24210.93709937  .00041707  00000-0  26351-2 0  9998,2 52129  53.2153 192.1345 0002136 117.9248 242.1960 15.08672915132058,6918.391,95.448,541.734,538.778,0.0
52129.0,STARLINK-3661,PAYLOAD,2024-07-29 06:26:17,15.08855424,0.0001352,53.2156,190.6477,91.2936,268.8211,0.00018515,2.661e-05,0.0,0 STARLINK-3661,1 52129U 22029AT  24211.26825327  .00002661  00000-0  18515-3 0  9997,2 52129  53.2156 190.6477 0001352  91.2936 268.8211 15.08855424132105,6917.833,95.437,540.634,538.763,0.0
52129.0,STARLINK-3661,PAYLOAD,2024-07-29 22:20:08,15.08852542,0.0001906,53.2158,187.6734,85.0244,275.0966,4.9342e-05,4.97e-06,0.0,0 STARLINK-3661,1 52129U 22029AT  24211.93065578  .00000497  00000-0  49342-4 0  9993,2 52129  53.2158 187.6734 0001906  85.0244 275.0966 15.08852542132203,6917.842,95.437,541.026,538.389,0.0
52129.0,STARLINK-3661,PAYLOAD,2024-07-30 04:41:41,15.08846539,0.0001349,53.2159,186.484,89.566,270.5486,-6.0247e-07,-2.98e-06,0.0,0 STARLINK-3661,1 52129U 22029AT  24212.19561824 -.00000298  00000-0 -60247-6 0  9997,2 52129  53.2159 186.4840 0001349  89.5660 270.5486 15.08846539132241,6917.86,95.437,540.659,538.792,0.0
52129.0,STARLINK-3661,PAYLOAD,2024-07-30 15:49:22,15.0885383,0.0001406,53.2167,184.4025,91.1932,268.9221,5.9793e-05,6.64e-06,0.0,0 STARLINK-3661,1 52129U 22029AT  24212.65928958  .00000664  00000-0  59793-4 0  9990,2 52129  53.2167 184.4025 0001406  91.1932 268.9221 15.08853830132316,6917.838,95.437,540.676,538.73,0.0
52129.0,STARLINK-3661,PAYLOAD,2024-07-31 04:32:27,15.08858595,0.0001391,53.2168,182.0225,94.2543,265.8608,3.445e-05,2.61e-06,0.0,0 STARLINK-3661,1 52129U 22029AT  24213.18920354  .00000261  00000-0  34450-4 0  9997,2 52129  53.2168 182.0225 0001391  94.2543 265.8608 15.08858595132394,6917.824,95.436,540.651,538.726,0.0
52129.0,STARLINK-3661,PAYLOAD,2024-08-01 04:23:15,15.08837332,0.0001426,53.2171,177.5615,95.8565,264.2589,3.9067e-05,3.34e-06,0.0,0 STARLINK-3661,1 52129U 22029AT  24214.18281288  .00000334  00000-0  39067-4 0  9994,2 52129  53.2171 177.5615 0001426  95.8565 264.2589 15.08837332132544,6917.889,95.438,540.74,538.767,0.0
52129.0,STARLINK-3661,PAYLOAD,2024-08-01 21:52:29,15.0883466,0.0001377,53.2165,174.2909,95.3086,264.8063,-1.8057e-05,-5.75e-06,0.0,0 STARLINK-3661,1 52129U 22029AT  24214.91145704 -.00000575  00000-0 -18057-4 0  9992,2 52129  53.2165 174.2909 0001377  95.3086 264.8063 15.08834660132651,6917.897,95.438,540.714,538.809,0.0
52129.0,STARLINK-3661,PAYLOAD,2024-08-02 04:14:02,15.08831736,0.0001329,53.2164,173.1032,90.3777,269.7367,-4.7333e-05,-1.041e-05,0.0,0 STARLINK-3661,1 52129U 22029AT  24215.17642061 -.00001041  00000-0 -47333-4 0  9997,2 52129  53.2164 173.1032 0001329  90.3777 269.7367 15.08831736132690,6917.906,95.438,540.69,538.851,0.0
52129.0,STARLINK-3661,PAYLOAD,2024-08-02 13:46:20,15.08842206,0.000134,53.2169,171.3175,88.3042,271.8103,-9.0322e-06,-4.32e-06,0.0,0 STARLINK-3661,1 52129U 22029AT  24215.57385371 -.00000432  00000-0 -90322-5 0  9999,2 52129  53.2169 171.3175 0001340  88.3042 271.8103 15.08842206132751,6917.874,95.437,540.666,538.812,0.0
52129.0,STARLINK-3661,PAYLOAD,2024-08-02 21:43:17,15.08830991,0.0001462,53.2177,169.8333,97.3718,262.7441,8.6235e-05,1.084e-05,0.0,0 STARLINK-3661,1 52129U 22029AT  24215.90505926  .00001084  00000-0  86235-4 0  9995,2 52129  53.2177 169.8333 0001462  97.3718 262.7441 15.08830991132801,6917.908,95.438,540.784,538.762,0.0
